{"type":"FeatureCollection","name":"Lokero B2 initial postcode coverage","attribution":"© OpenStreetMap contributors, ODbL 1.0","retrieved_at":"2026-08-26","features":[{"type":"Feature","properties":{"postal_code":"65618","city":"Eisenbach","center_lat":50.3545936,"center_lng":8.27984645,"geometry_source":"osm:nominatim:relation/3353610@2026-08-26"},"geometry":{"type":"Polygon","coordinates":[[[8.1976323,50.3379725],[8.1999082,50.334251],[8.1978654,50.333078],[8.2112756,50.3290239],[8.2200852,50.3227624],[8.2279587,50.3244945],[8.2417516,50.331699],[8.2685788,50.3280886],[8.2865513,50.3324792],[8.2913814,50.3316241],[8.3010409,50.3364148],[8.3106774,50.33733],[8.3155743,50.3406951],[8.3316013,50.3449694],[8.3369087,50.348556],[8.3352267,50.3568452],[8.3440921,50.3562897],[8.3544577,50.3610122],[8.3453305,50.3675664],[8.3494544,50.3683413],[8.3513992,50.3718572],[8.3489633,50.3735431],[8.3559752,50.3742708],[8.3620606,50.3802204],[8.3333635,50.3746529],[8.3311342,50.3759409],[8.3157533,50.3690783],[8.3130496,50.3710545],[8.3098795,50.3694122],[8.2975589,50.3705112],[8.2960377,50.3685803],[8.2949328,50.3708366],[8.2998179,50.3772472],[8.2991905,50.3788458],[8.3025523,50.3803605],[8.2985163,50.3832398],[8.2759019,50.3798702],[8.2754794,50.3816972],[8.278411,50.3824337],[8.2772184,50.3864248],[8.2582154,50.3814197],[8.2349933,50.3822396],[8.2371505,50.3761222],[8.2423397,50.3764122],[8.2480343,50.3731434],[8.24796,50.3707519],[8.2534093,50.3670656],[8.2577377,50.36079],[8.2588108,50.3565423],[8.2532335,50.3542046],[8.2458902,50.3553446],[8.2320729,50.3521735],[8.2158314,50.3457157],[8.2075702,50.3469428],[8.1987183,50.3412967],[8.1979977,50.3397872],[8.1997602,50.3388221],[8.1976323,50.3379725]]]}},{"type":"Feature","properties":{"postal_code":"65611","city":"Niederbrechen","center_lat":50.36191075,"center_lng":8.186353149999999,"geometry_source":"osm:nominatim:relation/3353608@2026-08-26"},"geometry":{"type":"Polygon","coordinates":[[[8.1138955,50.3581506],[8.1190298,50.353985],[8.141231,50.3574101],[8.14409,50.3556161],[8.1465334,50.3567075],[8.1528431,50.3474102],[8.1509205,50.3470413],[8.1525404,50.3439498],[8.1491667,50.3393091],[8.1598968,50.3394159],[8.1676372,50.3364973],[8.1796815,50.3409261],[8.1826908,50.344217],[8.1965579,50.3392642],[8.2083316,50.3471695],[8.2158314,50.3457157],[8.2320729,50.3521735],[8.2458902,50.3553446],[8.2532335,50.3542046],[8.2588108,50.3565423],[8.2573601,50.3592265],[8.2465638,50.3602489],[8.2245572,50.3577993],[8.223221,50.3603763],[8.2172383,50.3604045],[8.2173086,50.3622458],[8.2013635,50.3704462],[8.2003246,50.3725242],[8.1882021,50.3733015],[8.1869057,50.3768415],[8.1768384,50.3775616],[8.1771125,50.379266],[8.1733778,50.3800987],[8.1738182,50.3818641],[8.1544745,50.3873242],[8.153552,50.3824756],[8.1481954,50.3833747],[8.1480497,50.3783583],[8.1427798,50.3776425],[8.1437675,50.3757817],[8.140061,50.3752972],[8.1407455,50.3736848],[8.1375524,50.3729271],[8.1381688,50.3715081],[8.1321117,50.3714997],[8.1304791,50.3682886],[8.1138955,50.3581506]]]}},{"type":"Feature","properties":{"postal_code":"65606","city":"Villmar","center_lat":50.39920785,"center_lng":8.22768625,"geometry_source":"osm:nominatim:relation/3353607@2026-08-26"},"geometry":{"type":"Polygon","coordinates":[[[8.1568262,50.3890647],[8.1573804,50.3870042],[8.1660659,50.3849024],[8.1664696,50.3831181],[8.1738182,50.3818641],[8.1733778,50.3800987],[8.1771125,50.379266],[8.1768384,50.3775616],[8.1869057,50.3768415],[8.1882021,50.3733015],[8.2003246,50.3725242],[8.2013635,50.3704462],[8.2173086,50.3622458],[8.2172383,50.3604045],[8.223221,50.3603763],[8.2245572,50.3577993],[8.2381563,50.3602325],[8.2547414,50.3590012],[8.2578494,50.3602449],[8.2464306,50.3745658],[8.2371505,50.3761222],[8.2349933,50.3822396],[8.2582154,50.3814197],[8.2772184,50.3864248],[8.278411,50.3824337],[8.2754794,50.3816972],[8.2759019,50.3798702],[8.2985463,50.3833862],[8.2948545,50.3859011],[8.2931665,50.390374],[8.2812324,50.3979896],[8.2753674,50.3961582],[8.2798375,50.3989525],[8.2786008,50.4014426],[8.275928,50.4011457],[8.2841698,50.4066221],[8.2809181,50.4088092],[8.2727215,50.4068318],[8.2694819,50.4080194],[8.2653422,50.4154464],[8.267926,50.418481],[8.2662445,50.423234],[8.2589979,50.4260602],[8.2512684,50.4240524],[8.2530933,50.428039],[8.2498711,50.4351999],[8.249834,50.4406152],[8.2402385,50.4388009],[8.2363766,50.4405853],[8.2295025,50.44011],[8.2225145,50.4341362],[8.2127019,50.4349172],[8.2074818,50.4383834],[8.2043533,50.4363562],[8.2043403,50.4339009],[8.2104213,50.4358269],[8.2096531,50.4305768],[8.2001772,50.4301536],[8.1999054,50.4259769],[8.2065598,50.4262171],[8.208806,50.4223701],[8.2136851,50.4242493],[8.21407,50.4227449],[8.2165202,50.4231998],[8.2184992,50.4185494],[8.2177131,50.4105701],[8.2110688,50.407809],[8.2123141,50.4057297],[8.2049809,50.4061974],[8.1991529,50.404284],[8.1910564,50.4087509],[8.1874727,50.4086613],[8.1841706,50.4061836],[8.1864859,50.4011485],[8.1833598,50.3945115],[8.1767375,50.3927123],[8.1656845,50.3970868],[8.1623231,50.3955109],[8.1627636,50.3917728],[8.1568262,50.3890647]]]}},{"type":"Feature","properties":{"postal_code":"57614","city":"Oberdreis","center_lat":50.63791225,"center_lng":7.6615713,"geometry_source":"osm:nominatim:relation/1086016@2026-08-26"},"geometry":{"type":"Polygon","coordinates":[[[7.5695545,50.6363274],[7.5755631,50.6328452],[7.5761294,50.6302548],[7.572985,50.6246052],[7.5770751,50.6246685],[7.5783778,50.6219329],[7.5787464,50.6195412],[7.5734828,50.617276],[7.5822577,50.6149654],[7.5899863,50.6202914],[7.5985513,50.6159872],[7.6187413,50.6179734],[7.6235596,50.613879],[7.627846,50.6059814],[7.6316999,50.6053951],[7.6324177,50.598672],[7.6395109,50.5967181],[7.6403668,50.5942759],[7.6504954,50.5936069],[7.6527932,50.5919436],[7.6651251,50.5946391],[7.6656326,50.5994263],[7.6743703,50.6121564],[7.6595265,50.614306],[7.6570525,50.6188552],[7.6475248,50.6194489],[7.6506522,50.6200722],[7.6517429,50.623405],[7.646978,50.6230306],[7.6437335,50.6255579],[7.6375283,50.6222427],[7.6261717,50.6273175],[7.6203814,50.627755],[7.6177117,50.6326415],[7.6227514,50.6351335],[7.6262089,50.6402089],[7.6246723,50.6431088],[7.6216477,50.6429039],[7.6238649,50.6456441],[7.6203023,50.6478162],[7.6239922,50.6518174],[7.6361917,50.6528809],[7.6384904,50.6484714],[7.6419499,50.6487384],[7.6442045,50.6512901],[7.6526203,50.6513061],[7.6553199,50.6502832],[7.6569444,50.6452384],[7.6656434,50.6473726],[7.6724055,50.6467089],[7.6819493,50.6410881],[7.6903369,50.6286347],[7.7068538,50.6218837],[7.7111641,50.6242936],[7.7137503,50.6312657],[7.7087093,50.6334893],[7.7225287,50.6389544],[7.7227389,50.6409279],[7.733357,50.6487219],[7.7401009,50.6489193],[7.7395991,50.6550228],[7.7427816,50.6552306],[7.7453413,50.6585576],[7.7481368,50.6653986],[7.7470678,50.6661408],[7.7535881,50.6754687],[7.744565,50.6809294],[7.7340845,50.6838809],[7.731785,50.681474],[7.7272844,50.6820444],[7.7265476,50.677899],[7.7206561,50.6726291],[7.7150827,50.672062],[7.7037707,50.674857],[7.6978183,50.6721999],[7.696092,50.6734381],[7.6915937,50.666749],[7.6945086,50.6644601],[7.6884138,50.6563735],[7.674,50.6474435],[7.6760776,50.6499707],[7.6749251,50.653561],[7.6631927,50.6603212],[7.6576425,50.6662817],[7.6497127,50.6694355],[7.6453643,50.6690802],[7.643179,50.6736228],[7.6306309,50.6733171],[7.6290821,50.6718129],[7.6195915,50.6739306],[7.6133317,50.671751],[7.6208329,50.6696573],[7.6233114,50.662984],[7.619707,50.6610698],[7.6178792,50.6622579],[7.6036237,50.6518161],[7.6003677,50.6509195],[7.5946882,50.6533902],[7.5887629,50.65071],[7.5865454,50.6460477],[7.5793767,50.6439354],[7.5703302,50.6446311],[7.5721499,50.6391086],[7.5695545,50.6363274]]]}},{"type":"Feature","properties":{"postal_code":"56305","city":"Puderbach","center_lat":50.60564375,"center_lng":7.5895545,"geometry_source":"osm:nominatim:relation/1130659@2026-08-26"},"geometry":{"type":"Polygon","coordinates":[[[7.53851,50.6270701],[7.5437533,50.6228852],[7.5414627,50.6206776],[7.5438038,50.6196222],[7.5426457,50.6175631],[7.545317,50.6138494],[7.5423022,50.6096581],[7.5445667,50.6088793],[7.5468676,50.6036562],[7.5655014,50.5975797],[7.569039,50.5980288],[7.577291,50.6046248],[7.5814049,50.5988677],[7.5904904,50.5967704],[7.5891912,50.5940888],[7.5930466,50.5867504],[7.5981865,50.5835198],[7.6119626,50.586004],[7.6151845,50.5847075],[7.6209103,50.588749],[7.6228008,50.5866399],[7.6232483,50.5895736],[7.640599,50.593763],[7.6395109,50.5967181],[7.6324177,50.598672],[7.6316999,50.6053951],[7.627846,50.6059814],[7.6235596,50.613879],[7.6187413,50.6179734],[7.5985513,50.6159872],[7.5899863,50.6202914],[7.5833242,50.6152811],[7.5797055,50.6150354],[7.5734828,50.617276],[7.5787464,50.6195412],[7.5770751,50.6246685],[7.5730962,50.6250779],[7.5655672,50.6208792],[7.5625602,50.6226763],[7.5651139,50.6256084],[7.5643124,50.6270138],[7.559439,50.6264793],[7.5608747,50.6233714],[7.5577202,50.6220696],[7.5508264,50.6266346],[7.53851,50.6270701]]]}},{"type":"Feature","properties":{"postal_code":"56269","city":"Dierdorf","center_lat":50.55942935,"center_lng":7.6471418,"geometry_source":"osm:nominatim:relation/1116420@2026-08-26"},"geometry":{"type":"MultiPolygon","coordinates":[[[[7.5827893,50.5338542],[7.585007,50.5331735],[7.5929898,50.5214302],[7.6127396,50.529488],[7.6155584,50.5278407],[7.6342914,50.52675],[7.634255,50.5244212],[7.643533,50.524734],[7.646581,50.5220277],[7.6658529,50.5220004],[7.6683011,50.5188323],[7.6759944,50.5242874],[7.6868577,50.5271083],[7.692171,50.5255623],[7.6957325,50.5287009],[7.6999298,50.5377229],[7.6993459,50.5419765],[7.7029044,50.5426974],[7.7013086,50.5495978],[7.6919068,50.5505307],[7.704208,50.5616816],[7.6995618,50.5667227],[7.6951102,50.5680543],[7.6980792,50.5746791],[7.6931877,50.5753187],[7.6918225,50.5718503],[7.6840908,50.5676385],[7.6837066,50.5695071],[7.6870226,50.5730399],[7.6861422,50.5775143],[7.6877814,50.5803331],[7.6804156,50.5934781],[7.6651251,50.5946391],[7.6574868,50.5931016],[7.6527932,50.5919436],[7.6573198,50.5868498],[7.6587091,50.5813385],[7.6580557,50.5795919],[7.6521768,50.5783923],[7.6543631,50.5737775],[7.651323,50.5688941],[7.6312548,50.5639433],[7.6299997,50.558594],[7.6145267,50.5558819],[7.6146864,50.5535955],[7.618795,50.5525774],[7.6182109,50.5502932],[7.6234468,50.5488916],[7.6207165,50.5491035],[7.6201729,50.5455858],[7.615138,50.5416336],[7.5827893,50.5338542]]],[[[7.6897499,50.5962932],[7.7000106,50.5898891],[7.7007195,50.5836503],[7.6945601,50.5822535],[7.695687,50.5801091],[7.6985972,50.5800888],[7.7061037,50.5866465],[7.7057888,50.5888322],[7.7088006,50.5907651],[7.7114943,50.5972364],[7.7001175,50.6000264],[7.6991602,50.5969223],[7.6948294,50.5995955],[7.6897499,50.5962932]]]]}},{"type":"Feature","properties":{"postal_code":"56316","city":"Raubach","center_lat":50.57576365,"center_lng":7.62594315,"geometry_source":"osm:nominatim:relation/1130675@2026-08-26"},"geometry":{"type":"Polygon","coordinates":[[[7.5931772,50.5591523],[7.5960951,50.5575506],[7.610247,50.5572514],[7.6176729,50.5603079],[7.6193916,50.5573358],[7.6299997,50.558594],[7.6312548,50.5639433],[7.651323,50.5688941],[7.6543631,50.5737775],[7.6521768,50.5783923],[7.6580557,50.5795919],[7.6578148,50.5857243],[7.6504954,50.5936069],[7.6403668,50.5942759],[7.63375,50.591088],[7.6232483,50.5895736],[7.6228008,50.5866399],[7.6209103,50.588749],[7.6151845,50.5847075],[7.6119626,50.586004],[7.5981865,50.5835198],[7.6014869,50.578815],[7.6062185,50.577394],[7.6058214,50.5740301],[7.6094002,50.5686602],[7.5965786,50.5674613],[7.5985615,50.5624738],[7.5931772,50.5591523]]]}},{"type":"Feature","properties":{"postal_code":"57610","city":"Michelbach","center_lat":50.68873155,"center_lng":7.6636187499999995,"geometry_source":"osm:nominatim:relation/1086026@2026-08-26"},"geometry":{"type":"Polygon","coordinates":[[[7.5992024,50.6846431],[7.601662,50.6822197],[7.6017344,50.6764495],[7.605342,50.6725043],[7.6021649,50.6671079],[7.60677,50.6665626],[7.6102774,50.6705423],[7.6195915,50.6739306],[7.6290821,50.6718129],[7.6306309,50.6733171],[7.643179,50.6736228],[7.6453643,50.6690802],[7.6497127,50.6694355],[7.6576425,50.6662817],[7.6631927,50.6603212],[7.6749251,50.653561],[7.6760776,50.6499707],[7.674,50.6474435],[7.6884138,50.6563735],[7.6945086,50.6644601],[7.6915937,50.666749],[7.696092,50.6734381],[7.6978183,50.6721999],[7.7037707,50.674857],[7.7150827,50.672062],[7.7206561,50.6726291],[7.7265476,50.677899],[7.7280351,50.685329],[7.7280175,50.6867032],[7.7212324,50.6875195],[7.7227623,50.6910151],[7.7169872,50.6938641],[7.7006081,50.6949556],[7.6821357,50.6910998],[7.6709877,50.6918056],[7.670513,50.6936643],[7.6617781,50.6944826],[7.6608883,50.6964866],[7.6563348,50.6960901],[7.6575359,50.7001091],[7.6507904,50.7000603],[7.6551154,50.7051047],[7.6552078,50.7072751],[7.6501315,50.7091715],[7.6533342,50.7119262],[7.6541669,50.7175667],[7.6523844,50.7200047],[7.6533952,50.7236959],[7.6502272,50.7249195],[7.649454,50.7272544],[7.652694,50.7278446],[7.6467671,50.7300196],[7.6444602,50.7297487],[7.6447616,50.726647],[7.6405339,50.7239973],[7.6430445,50.7218582],[7.6401651,50.7152495],[7.6409044,50.7098698],[7.6339162,50.7052163],[7.6360238,50.7033623],[7.6341128,50.7023149],[7.6340177,50.697611],[7.6314435,50.6968285],[7.632829,50.6920372],[7.6266821,50.6908442],[7.6197191,50.6922929],[7.6188475,50.6890785],[7.6143068,50.6885864],[7.6077974,50.6888107],[7.6056784,50.6906919],[7.5992024,50.6846431]]]}}]}
